{"type": "FeatureCollection", "features": [ {"type": "Feature", "properties": {"norad_id": 66979, "name": "STARLINK-36107", "group": "last-30-days", "lat": 31.694218187040782, "lon": 142.92210621311776, "alt_km": 346.0024796193611, "timestamp": "2025-12-23T11:34:46.948566+00:00", "meta": {"OBJECT_NAME": "STARLINK-36107", "OBJECT_ID": "2025-288W", "EPOCH": "2025-12-23T04:00:01.998720", "MEAN_MOTION": 15.74391819, "ECCENTRICITY": 0.0001486, "INCLINATION": 43.0007, "RA_OF_ASC_NODE": 103.3342, "ARG_OF_PERICENTER": 276.8205, "MEAN_ANOMALY": 142.3405, "EPHEMERIS_TYPE": 0, "CLASSIFICATION_TYPE": "U", "NORAD_CAT_ID": 66979, "ELEMENT_SET_NO": 999, "REV_AT_EPOCH": 350, "BSTAR": -0.014886, "MEAN_MOTION_DOT": -0.01928249, "MEAN_MOTION_DDOT": 0}, "tle": {"line1": "1 66979U 25288W   25357.16668980 -.01928249  00000+0 -14886-1 0  9992", "line2": "2 66979  43.0007 103.3342 0001486 276.8205 142.3405 15.74391819  3503"}}, "geometry": {"type": "Point", "coordinates": [142.92210621311776, 31.694218187040782]}}, {"type": "Feature", "properties": {"norad_id": 66980, "name": "STARLINK-36086", "group": "last-30-days", "lat": 32.65756429538895, "lon": 144.87361797071662, "alt_km": 345.82336709735773, "timestamp": "2025-12-23T11:34:46.948575+00:00", "meta": {"OBJECT_NAME": "STARLINK-36086", "OBJECT_ID": "2025-288X", "EPOCH": "2025-12-23T04:00:01.998720", "MEAN_MOTION": 15.74384533, "ECCENTRICITY": 0.000147, "INCLINATION": 43.0006, "RA_OF_ASC_NODE": 103.3288, "ARG_OF_PERICENTER": 278.7844, "MEAN_ANOMALY": 142.2926, "EPHEMERIS_TYPE": 0, "CLASSIFICATION_TYPE": "U", "NORAD_CAT_ID": 66980, "ELEMENT_SET_NO": 999, "REV_AT_EPOCH": 350, "BSTAR": -0.01477, "MEAN_MOTION_DOT": -0.01914697, "MEAN_MOTION_DDOT": 0}, "tle": {"line1": "1 66980U 25288X   25357.16668980 -.01914697  00000+0 -14770-1 0  9998", "line2": "2 66980  43.0006 103.3288 0001470 278.7844 142.2926 15.74384533  3508"}}, "geometry": {"type": "Point", "coordinates": [144.87361797071662, 32.65756429538895]}}, {"type": "Feature", "properties": {"norad_id": 66981, "name": "STARLINK-36142", "group": "last-30-days", "lat": 33.59359699780238, "lon": 146.8756331573076, "alt_km": 345.87077964963646, "timestamp": "2025-12-23T11:34:46.948585+00:00", "meta": {"OBJECT_NAME": "STARLINK-36142", "OBJECT_ID": "2025-288Y", "EPOCH": "2025-12-23T04:00:01.998720", "MEAN_MOTION": 15.74394909, "ECCENTRICITY": 0.0001591, "INCLINATION": 43.0007, "RA_OF_ASC_NODE": 103.3242, "ARG_OF_PERICENTER": 273.1778, "MEAN_ANOMALY": 149.8182, "EPHEMERIS_TYPE": 0, "CLASSIFICATION_TYPE": "U", "NORAD_CAT_ID": 66981, "ELEMENT_SET_NO": 999, "REV_AT_EPOCH": 350, "BSTAR": -0.014927, "MEAN_MOTION_DOT": -0.01933075, "MEAN_MOTION_DDOT": 0}, "tle": {"line1": "1 66981U 25288Y   25357.16668980 -.01933075  00000+0 -14927-1 0  9994", "line2": "2 66981  43.0007 103.3242 0001591 273.1778 149.8182 15.74394909  3504"}}, "geometry": {"type": "Point", "coordinates": [146.8756331573076, 33.59359699780238]}}, {"type": "Feature", "properties": {"norad_id": 66982, "name": "STARLINK-36113", "group": "last-30-days", "lat": 34.49150868563653, "lon": 148.90842799393496, "alt_km": 345.8276441721764, "timestamp": "2025-12-23T11:34:46.948594+00:00", "meta": {"OBJECT_NAME": "STARLINK-36113", "OBJECT_ID": "2025-288Z", "EPOCH": "2025-12-23T04:00:01.998720", "MEAN_MOTION": 15.7438184, "ECCENTRICITY": 0.0001607, "INCLINATION": 43.0008, "RA_OF_ASC_NODE": 103.3189, "ARG_OF_PERICENTER": 267.9342, "MEAN_ANOMALY": 156.9797, "EPHEMERIS_TYPE": 0, "CLASSIFICATION_TYPE": "U", "NORAD_CAT_ID": 66982, "ELEMENT_SET_NO": 999, "REV_AT_EPOCH": 350, "BSTAR": -0.01475, "MEAN_MOTION_DOT": -0.01912419, "MEAN_MOTION_DDOT": 0}, "tle": {"line1": "1 66982U 25288Z   25357.16668980 -.01912419  00000+0 -14750-1 0  9998", "line2": "2 66982  43.0008 103.3189 0001607 267.9342 156.9797 15.74381840  3503"}}, "geometry": {"type": "Point", "coordinates": [148.90842799393496, 34.49150868563653]}}, {"type": "Feature", "properties": {"norad_id": 66983, "name": "STARLINK-36145", "group": "last-30-days", "lat": 36.18922787189106, "lon": 153.12687780373818, "alt_km": 345.4026695845232, "timestamp": "2025-12-23T11:34:46.948603+00:00", "meta": {"OBJECT_NAME": "STARLINK-36145", "OBJECT_ID": "2025-288AA", "EPOCH": "2025-12-23T04:00:01.998720", "MEAN_MOTION": 15.74398266, "ECCENTRICITY": 0.0001348, "INCLINATION": 43.0007, "RA_OF_ASC_NODE": 103.3096, "ARG_OF_PERICENTER": 273.0881, "MEAN_ANOMALY": 155.6593, "EPHEMERIS_TYPE": 0, "CLASSIFICATION_TYPE": "U", "NORAD_CAT_ID": 66983, "ELEMENT_SET_NO": 999, "REV_AT_EPOCH": 350, "BSTAR": -0.014981, "MEAN_MOTION_DOT": -0.01979613, "MEAN_MOTION_DDOT": 0}, "tle": {"line1": "1 66983U 25288AA  25357.16668980 -.01979613  00000+0 -14981-1 0  9994", "line2": "2 66983  43.0007 103.3096 0001348 273.0881 155.6593 15.74398266  3508"}}, "geometry": {"type": "Point", "coordinates": [153.12687780373818, 36.18922787189106]}}, {"type": "Feature", "properties": {"norad_id": 66984, "name": "STARLINK-35591", "group": "last-30-days", "lat": 35.35730861346969, "lon": 150.99081618961097, "alt_km": 345.4967625744084, "timestamp": "2025-12-23T11:34:46.948612+00:00", "meta": {"OBJECT_NAME": "STARLINK-35591", "OBJECT_ID": "2025-288AB", "EPOCH": "2025-12-23T04:00:01.998720", "MEAN_MOTION": 15.74391687, "ECCENTRICITY": 0.000129, "INCLINATION": 43.0008, "RA_OF_ASC_NODE": 103.3134, "ARG_OF_PERICENTER": 270.527, "MEAN_ANOMALY": 156.299, "EPHEMERIS_TYPE": 0, "CLASSIFICATION_TYPE": "U", "NORAD_CAT_ID": 66984, "ELEMENT_SET_NO": 999, "REV_AT_EPOCH": 350, "BSTAR": -0.014852, "MEAN_MOTION_DOT": -0.01924237, "MEAN_MOTION_DDOT": 0}, "tle": {"line1": "1 66984U 25288AB  25357.16668980 -.01924237  00000+0 -14852-1 0  9994", "line2": "2 66984  43.0008 103.3134 0001290 270.5270 156.2990 15.74391687  3501"}}, "geometry": {"type": "Point", "coordinates": [150.99081618961097, 35.35730861346969]}}, {"type": "Feature", "properties": {"norad_id": 66985, "name": "STARLINK-36103", "group": "last-30-days", "lat": 36.9797636908865, "lon": 155.29901969080106, "alt_km": 345.34731037103575, "timestamp": "2025-12-23T11:34:46.948622+00:00", "meta": {"OBJECT_NAME": "STARLINK-36103", "OBJECT_ID": "2025-288AC", "EPOCH": "2025-12-23T04:00:01.998720", "MEAN_MOTION": 15.74389806, "ECCENTRICITY": 0.0001533, "INCLINATION": 43.0007, "RA_OF_ASC_NODE": 103.3044, "ARG_OF_PERICENTER": 276.6008, "MEAN_ANOMALY": 154.0644, "EPHEMERIS_TYPE": 0, "CLASSIFICATION_TYPE": "U", "NORAD_CAT_ID": 66985, "ELEMENT_SET_NO": 999, "REV_AT_EPOCH": 350, "BSTAR": -0.014865, "MEAN_MOTION_DOT": -0.01925772, "MEAN_MOTION_DDOT": 0}, "tle": {"line1": "1 66985U 25288AC  25357.16668980 -.01925772  00000+0 -14865-1 0  9994", "line2": "2 66985  43.0007 103.3044 0001533 276.6008 154.0644 15.74389806  3509"}}, "geometry": {"type": "Point", "coordinates": [155.29901969080106, 36.9797636908865]}}, {"type": "Feature", "properties": {"norad_id": 66986, "name": "STARLINK-36135", "group": "last-30-days", "lat": 37.72929675214725, "lon": 157.51407365757527, "alt_km": 345.34460813938404, "timestamp": "2025-12-23T11:34:46.948630+00:00", "meta": {"OBJECT_NAME": "STARLINK-36135", "OBJECT_ID": "2025-288AD", "EPOCH": "2025-12-23T04:00:01.998720", "MEAN_MOTION": 15.74389912, "ECCENTRICITY": 0.000159, "INCLINATION": 43.0007, "RA_OF_ASC_NODE": 103.2989, "ARG_OF_PERICENTER": 272.0964, "MEAN_ANOMALY": 160.4854, "EPHEMERIS_TYPE": 0, "CLASSIFICATION_TYPE": "U", "NORAD_CAT_ID": 66986, "ELEMENT_SET_NO": 999, "REV_AT_EPOCH": 350, "BSTAR": -0.014861, "MEAN_MOTION_DOT": -0.01925414, "MEAN_MOTION_DDOT": 0}, "tle": {"line1": "1 66986U 25288AD  25357.16668980 -.01925414  00000+0 -14861-1 0  9994", "line2": "2 66986  43.0007 103.2989 0001590 272.0964 160.4854 15.74389912  3503"}}, "geometry": {"type": "Point", "coordinates": [157.51407365757527, 37.72929675214725]}}, {"type": "Feature", "properties": {"norad_id": 66987, "name": "STARLINK-36147", "group": "last-30-days", "lat": 38.437944560295215, "lon": 159.7802871039463, "alt_km": 345.09986614681384, "timestamp": "2025-12-23T11:34:46.948639+00:00", "meta": {"OBJECT_NAME": "STARLINK-36147", "OBJECT_ID": "2025-288AE", "EPOCH": "2025-12-23T04:00:01.998720", "MEAN_MOTION": 15.74386507, "ECCENTRICITY": 0.000133, "INCLINATION": 43.0007, "RA_OF_ASC_NODE": 103.2951, "ARG_OF_PERICENTER": 273.9369, "MEAN_ANOMALY": 160.5726, "EPHEMERIS_TYPE": 0, "CLASSIFICATION_TYPE": "U", "NORAD_CAT_ID": 66987, "ELEMENT_SET_NO": 999, "REV_AT_EPOCH": 350, "BSTAR": -0.014917, "MEAN_MOTION_DOT": -0.01931119, "MEAN_MOTION_DDOT": 0}, "tle": {"line1": "1 66987U 25288AE  25357.16668980 -.01931119  00000+0 -14917-1 0  9996", "line2": "2 66987  43.0007 103.2951 0001330 273.9369 160.5726 15.74386507  3500"}}, "geometry": {"type": "Point", "coordinates": [159.7802871039463, 38.437944560295215]}}, {"type": "Feature", "properties": {"norad_id": 66988, "name": "YAOGAN-47", "group": "last-30-days", "lat": -5.5911397528011495, "lon": -118.11156838255086, "alt_km": 499.9256172946789, "timestamp": "2025-12-23T11:34:46.948650+00:00", "meta": {"OBJECT_NAME": "YAOGAN-47", "OBJECT_ID": "2025-289A", "EPOCH": "2025-12-20T02:21:43.539840", "MEAN_MOTION": 15.23243112, "ECCENTRICITY": 6.467e-05, "INCLINATION": 97.5265, "RA_OF_ASC_NODE": 59.2376, "ARG_OF_PERICENTER": 91.4531, "MEAN_ANOMALY": 268.678, "EPHEMERIS_TYPE": 0, "CLASSIFICATION_TYPE": "U", "NORAD_CAT_ID": 66988, "ELEMENT_SET_NO": 999, "REV_AT_EPOCH": 166, "BSTAR": 0.00010945697, "MEAN_MOTION_DOT": 2.52e-05, "MEAN_MOTION_DDOT": 0}, "tle": {"line1": "1 66988U 25289A   25354.09842060  .00002520  00000+0  10946-3 0  9992", "line2": "2 66988  97.5265  59.2376 0000646  91.4531 268.6780 15.23243112  1668"}}, "geometry": {"type": "Point", "coordinates": [-118.11156838255086, -5.5911397528011495]}}]}